[{"OBJECT_NAME":"ORBCOMM FM32","OBJECT_ID":"1999-065C","EPOCH":"2026-03-09T01:02:29.080032","MEAN_MOTION":14.3696516,"ECCENTRICITY":0.00057226,"INCLINATION":45.0154,"RA_OF_ASC_NODE":287.2018,"ARG_OF_PERICENTER":281.4865,"MEAN_ANOMALY":78.534,"EPHEMERIS_TYPE":0,"CLASSIFICATION_TYPE":"U","NORAD_CAT_ID":25982,"ELEMENT_SET_NO":999,"REV_AT_EPOCH":37268,"BSTAR":0.00040930249,"MEAN_MOTION_DOT":1.082e-5,"MEAN_MOTION_DDOT":0},{"OBJECT_NAME":"COSMOS 2491 DEB","OBJECT_ID":"2013-076AA","EPOCH":"2026-03-08T09:22:24.228480","MEAN_MOTION":14.41922557,"ECCENTRICITY":0.00237451,"INCLINATION":81.2061,"RA_OF_ASC_NODE":102.8716,"ARG_OF_PERICENTER":163.9807,"MEAN_ANOMALY":196.2138,"EPHEMERIS_TYPE":0,"CLASSIFICATION_TYPE":"U","NORAD_CAT_ID":45128,"ELEMENT_SET_NO":999,"REV_AT_EPOCH":4751,"BSTAR":0.0015479529,"MEAN_MOTION_DOT":5.099e-5,"MEAN_MOTION_DDOT":0}]
